     2.100          NAVIGATION                              RINEX VERSION / TYPE
fic2rin                                 05/26/2013 00:22:49 PGM / RUN BY / DATE
                                                            END OF HEADER
 1 13  5 25  2  0  0.0  .297650694847D-04  .420641299570D-11  .000000000000D+00
     .200000000000D+01 -.124375000000D+02  .523343227918D-08  .162645566082D+01
    -.506639480591D-06  .188956258353D-02  .486522912979D-05  .515368442535D+04
     .525600000000D+06  .391155481339D-07 -.134143468775D+01  .104308128357D-06
     .959723370159D+00  .284156250000D+03  .262541062883D+00 -.833106130786D-08
    -.282868925483D-09  .100000000000D+01  .174100000000D+04  .000000000000D+00
     .240000000000D+01  .000000000000D+00  .838190317154D-08  .200000000000D+01
     .518406000000D+06  .400000000000D+01
 2 13  5 25  2  0  0.0  .433770939708D-03  .181898940355D-11  .000000000000D+00
     .220000000000D+02 -.103750000000D+02  .560201906087D-08  .236890537430D+01
    -.745058059692D-06  .123671917245D-01  .463984906673D-05  .515364972687D+04
     .525600000000D+06 -.244006514549D-06 -.136303773362D+01 -.149011611938D-06
     .938233573171D+00  .281250000000D+03 -.259796573707D+01 -.842320800328D-08
    -.228223792151D-09  .100000000000D+01  .174100000000D+04  .000000000000D+00
     .240000000000D+01  .000000000000D+00 -.176951289177D-07  .220000000000D+02
     .518406000000D+06  .400000000000D+01
 3 13  5 25  2  0  0.0  .211307778955D-03  .500222085975D-11  .000000000000D+00
     .810000000000D+02  .384375000000D+01  .503842415630D-08  .254729302850D+01
     .633299350739D-07  .162279104115D-01  .114925205708D-04  .515369621277D+04
     .525600000000D+06  .108033418655D-06 -.253291197032D+01 -.141561031342D-06
     .934622526665D+00  .141156250000D+03  .128855184350D+01 -.783282626865D-08
     .736459247912D-09  .100000000000D+01  .174100000000D+04  .000000000000D+00
     .240000000000D+01  .000000000000D+00 -.465661287308D-08  .810000000000D+02
     .518406000000D+06  .400000000000D+01
 4 13  5 25  2  0  0.0  .227169133723D-03  .104591890704D-10  .000000000000D+00
     .820000000000D+02 -.928125000000D+01  .575809699071D-08 -.713397904229D+00
    -.374391674995D-06  .103156794794D-01  .451505184174D-05  .515377804947D+04
     .525600000000D+06 -.242143869400D-07 -.134656862320D+01  .189989805222D-06
     .937273013846D+00  .278750000000D+03  .979698723630D+00 -.872572060414D-08
    -.282154610015D-09  .100000000000D+01  .174100000000D+04  .000000000000D+00
     .240000000000D+01  .000000000000D+00 -.605359673500D-08  .820000000000D+02
     .518406000000D+06  .400000000000D+01
 5 13  5 25  2  0  0.0 -.395459122956D-03 -.909494701773D-12  .000000000000D+00
     .870000000000D+02  .165937500000D+02  .447625788268D-08 -.170027336748D+01
     .912696123123D-06  .304788013455D-02  .124201178551D-04  .515362561226D+04
     .525600000000D+06 -.117346644402D-06 -.297718285687D+00 -.670552253723D-07
     .949039000632D+00  .135093750000D+03  .264291232242D+00 -.782211153663D-08
    -.691814531138D-09  .100000000000D+01  .174100000000D+04  .000000000000D+00
     .240000000000D+01  .000000000000D+00 -.102445483208D-07  .870000000000D+02
     .518406000000D+06  .400000000000D+01
 6 13  5 25  2  0  0.0  .217657536268D-03 -.164845914696D-10  .000000000000D+00
     .101000000000D+03  .222187500000D+02  .503985278724D-08 -.189521829047D+01
     .976026058197D-06  .808142579626D-02  .111348927021D-04  .515367950058D+04
     .525600000000D+06 -.147148966789D-06 -.245348936659D+01 -.856816768646D-07
     .941187988898D+00  .157750000000D+03 -.318535564605D+00 -.814105339327D-08
     .851464038323D-09  .100000000000D+01  .174100000000D+04  .000000000000D+00
     .340000000000D+01  .000000000000D+00 -.512227416039D-08  .101000000000D+03
     .518406000000D+06  .400000000000D+01
 7 13  5 25  2  0  0.0  .217530876398D-03  .420641299570D-11  .000000000000D+00
     .580000000000D+02 -.448437500000D+02  .453768901296D-08  .996196537962D+00
    -.232271850109D-05  .636928447057D-02 -.655651092529D-06  .515368843842D+04
     .525600000000D+06 -.596046447754D-07  .181923670560D+01  .165775418282D-06
     .975126649665D+00  .400031250000D+03 -.293787069904D+01 -.854999899892D-08
    -.117862052285D-09  .100000000000D+01  .174100000000D+04  .000000000000D+00
     .240000000000D+01  .000000000000D+00 -.107102096081D-07  .580000000000D+02
     .518406000000D+06  .400000000000D+01
 8 13  5 25  2  0  0.0  .633206218481D-05  .227373675443D-12  .000000000000D+00
     .840000000000D+02 -.602812500000D+02  .400659546221D-08  .437899809565D+00
    -.312738120556D-05  .129336355021D-01  .245869159698D-06  .515372116661D+04
     .525600000000D+06  .139698386192D-06  .191050087484D+01  .244006514549D-06
     .997865920595D+00  .393968750000D+03 -.287544765837D+01 -.837963475971D-08
    -.137148569931D-09  .100000000000D+01  .174100000000D+04  .000000000000D+00
     .340000000000D+01  .000000000000D+00 -.419095158577D-08  .840000000000D+02
     .518406000000D+06  .400000000000D+01
 9 13  5 25  2  0  0.0  .243187882006D-03  .261479726760D-11  .000000000000D+00
     .940000000000D+02 -.350937500000D+02  .420981821297D-08  .166000492644D+01
    -.225752592087D-05  .174360004021D-01 -.949949026108D-06  .515278522682D+04
     .525600000000D+06  .208616256714D-06  .179598712934D+01 -.266358256340D-06
     .983751406086D+00  .408718750000D+03  .166280840998D+01 -.832713257278D-08
    -.346443002170D-10  .100000000000D+01  .174100000000D+04  .000000000000D+00
     .340000000000D+01  .000000000000D+00 -.558793544769D-08  .940000000000D+02
     .518406000000D+06  .400000000000D+01
10 13  5 25  2  0  0.0 -.810264609754D-04 -.136424205266D-11  .000000000000D+00
     .420000000000D+02  .268750000000D+02  .456911889357D-08 -.147586872834D+01
     .134296715260D-05  .124028770952D-01  .124722719193D-04  .515363974953D+04
     .525600000000D+06  .283122062683D-06 -.278278648428D+00 -.124797224998D-06
     .943881899875D+00  .129593750000D+03  .800505225399D+00 -.781603985515D-08
    -.727530304557D-09  .100000000000D+01  .174100000000D+04  .000000000000D+00
     .240000000000D+01  .000000000000D+00 -.279396772385D-08  .420000000000D+02
     .518406000000D+06  .400000000000D+01
11 13  5 25  2  0  0.0 -.385104678571D-03 -.363797880709D-11  .000000000000D+00
     .630000000000D+02  .139375000000D+02  .707100882161D-08  .119764559180D+01
     .683590769768D-06  .139914692845D-01  .446662306786D-05  .515367209435D+04
     .525600000000D+06 -.311061739922D-06 -.163835610002D+01  .223517417908D-07
     .888434197433D+00  .259187500000D+03  .116686484890D+01 -.943789312613D-08
     .892894335490D-10  .100000000000D+01  .174100000000D+04  .000000000000D+00
     .240000000000D+01  .000000000000D+00 -.116415321827D-07  .630000000000D+02
     .518406000000D+06  .400000000000D+01
12 13  5 25  2  0  0.0  .135613139719D-03  .204636307899D-11  .000000000000D+00
     .400000000000D+01 -.133562500000D+03  .380837291973D-08  .683078865594D+00
    -.703707337379D-05  .452506891452D-02  .103842467070D-04  .515357258987D+04
     .525600000000D+06  .409781932831D-07  .287823430226D+01  .819563865662D-07
     .984399582662D+00  .197562500000D+03  .260639273769D+00 -.767031949960D-08
    -.332156692802D-10  .100000000000D+01  .174100000000D+04  .000000000000D+00
     .240000000000D+01  .000000000000D+00 -.121071934700D-07  .400000000000D+01
     .518406000000D+06  .400000000000D+01
13 13  5 25  2  0  0.0  .116051640362D-03 -.363797880709D-11  .000000000000D+00
     .460000000000D+02  .176125000000D+03  .393123518030D-08 -.289435065047D+01
     .907108187675D-05  .518682436086D-02  .575557351112D-05  .515375667000D+04
     .525600000000D+06  .651925802231D-07  .851609216851D+00 -.745058059692D-08
     .981763369174D+00  .279750000000D+03  .211887473918D+01 -.792711591048D-08
     .367872466222D-09  .100000000000D+01  .174100000000D+04  .000000000000D+00
     .240000000000D+01  .000000000000D+00 -.111758708954D-07  .460000000000D+02
     .518406000000D+06  .400000000000D+01
14 13  5 25  2  0  0.0  .220769084990D-03 -.227373675443D-12  .000000000000D+00
     .840000000000D+02  .152562500000D+03  .397123684653D-08 -.271098998035D+01
     .798329710960D-05  .689741352107D-02  .554881989956D-05  .515375028610D+04
     .525600000000D+06 -.111758708954D-07  .822375283071D+00 -.186264514923D-07
     .974467577275D+00  .281031250000D+03 -.203403161728D+01 -.781603985515D-08
     .368229623956D-09  .100000000000D+01  .174100000000D+04  .000000000000D+00
     .240000000000D+01  .000000000000D+00 -.884756445885D-08  .840000000000D+02
     .518406000000D+06  .400000000000D+01
15 13  5 25  2  0  0.0 -.120487529784D-03 -.159161572810D-11  .000000000000D+00
     .230000000000D+02  .157500000000D+03  .473126850490D-08  .304644762454D+01
     .820122659206D-05  .540746527258D-02  .730715692043D-05  .515376636124D+04
     .525600000000D+06 -.521540641785D-07  .722572031740D+00 -.316649675369D-07
     .941175478022D+00  .228812500000D+03  .168193881562D+00 -.822819988041D-08
     .294655130712D-09  .100000000000D+01  .174100000000D+04  .000000000000D+00
     .240000000000D+01  .000000000000D+00 -.102445483208D-07  .230000000000D+02
     .518406000000D+06  .400000000000D+01
16 13  5 25  2  0  0.0 -.251892488450D-03  .227373675443D-12  .000000000000D+00
     .450000000000D+02 -.146718750000D+03  .366050961778D-08 -.151346491398D+01
    -.795163214207D-05  .715546077117D-02  .114776194096D-04  .515365371513D+04
     .525600000000D+06  .130385160446D-07  .289660579428D+01 -.100582838058D-06
     .985106077005D+00  .166812500000D+03  .989427234187D-01 -.761174563119D-08
     .885751180806D-10  .100000000000D+01  .174100000000D+04  .000000000000D+00
     .240000000000D+01  .000000000000D+00 -.102445483208D-07  .450000000000D+02
     .518406000000D+06  .400000000000D+01
